297 Caecilia,e,7.55742,332.13118,354.52149,3.1612695,0,0.1445212,55.94193,1/4/2010,2000.0,9.1,0.15
298 Baptistina,e,6.28788,8.26698,135.21711,2.2640544,0,0.0952431,234.93581,1/4/2010,2000.0,11.2,0.15
302 Clarissa,e,3.4133,7.90744,54.19944,2.4066036,0,0.1110596,300.30639,1/4/2010,2000.0,10.89,0.15
303 Josephina,e,6.88174,344.0725,63.73996,3.1280564,0,0.0663453,289.01892,1/4/2010,2000.0,8.7,0.15
304 Olga,e,15.84061,159.18185,172.30444,2.4041992,0,0.2209371,148.93652,1/4/2010,2000.0,9.74,0.07
305 Gordonia,e,4.44108,207.56203,260.9411,3.0924173,0,0.1911754,328.6815,1/4/2010,2000.0,8.77,0.15
306 Unitas,e,7.27013,142.01216,167.47339,2.3583857,0,0.1500988,156.4057,1/4/2010,2000.0,8.96,0.15
307 Nike,e,6.12798,101.0554,324.84717,2.909381,0,0.1403905,53.61234,1/4/2010,2000.0,10.12,0.15
308 Polyxo,e,4.36424,181.89489,112.23621,2.7495073,0,0.0369528,274.85246,1/4/2010,2000.0,8.17,0.21
309 Fraternitas,e,3.72241,356.60244,311.75188,2.6657499,0,0.1155455,5.14749,1/4/2010,2000.0,10.4,0.15
312 Pierretta,e,9.03363,6.71421,260.45293,2.7819799,0,0.1607849,255.03571,1/4/2010,2000.0,8.89,0.15
313 Chaldaea,e,11.65324,176.6951,316.21031,2.375143,0,0.1810594,335.84075,1/4/2010,2000.0,8.9,0.15
314 Rosalia,e,12.56425,170.34723,190.0062,3.1505033,0,0.1785165,54.60104,1/4/2010,2000.0,9.9,0.15
317 Roxane,e,1.76396,151.43467,186.27713,2.2861683,0,0.0852138,75.91905,1/4/2010,2000.0,10.03,0.15
322 Phaeo,e,8.0486,252.40114,115.3855,2.7836372,0,0.244977,192.78258,1/4/2010,2000.0,9.01,0.15
323 Brucia,e,24.22515,97.44021,291.28777,2.3828488,0,0.3003468,76.02452,1/4/2010,2000.0,9.73,0.15
324 Bamberga,e,11.1082,327.98917,43.8921,2.6844782,0,0.3370764,48.39546,1/4/2010,2000.0,6.82,0.09
325 Heidelberga,e,8.55997,344.9294,67.93162,3.2121763,0,0.1614043,316.70427,1/4/2010,2000.0,8.65,0.15
326 Tamara,e,23.72724,32.29291,238.6058,2.3173286,0,0.1910124,75.46623,1/4/2010,2000.0,9.36,0.15
328 Gudrun,e,16.11757,352.37466,101.85612,3.1171727,0,0.1079019,256.32599,1/4/2010,2000.0,8.6,0.15
329 Svea,e,15.8852,178.52979,53.57433,2.4762496,0,0.0232893,38.11773,1/4/2010,2000.0,9.66,0.15
331 Etheridgea,e,6.05401,22.05069,333.62182,3.0254757,0,0.1027863,358.08073,1/4/2010,2000.0,9.62,0.15
332 Siri,e,2.84775,31.5936,296.8293,2.7728024,0,0.091662,33.51941,1/4/2010,2000.0,9.5,0.15
333 Badenia,e,3.77562,353.62656,19.11831,3.1289409,0,0.1620156,68.03884,1/4/2010,2000.0,9.46,0.15
334 Chicago,e,4.64306,130.21935,153.26597,3.8879461,0,0.0231815,157.52089,1/4/2010,2000.0,7.64,0.15
335 Roberta,e,5.09522,148.51545,139.40407,2.4736725,0,0.1744664,108.63886,1/4/2010,2000.0,8.96,0.15
336 Lacadiera,e,5.64667,235.16814,31.31667,2.2515638,0,0.0945906,343.86767,1/4/2010,2000.0,9.76,0.15
337 Devosa,e,7.85269,355.52032,98.26602,2.3847936,0,0.1371428,247.25694,1/4/2010,2000.0,8.74,0.19
338 Budrosa,e,6.03788,287.60931,121.93188,2.9116463,0,0.0210558,175.13511,1/4/2010,2000.0,8.5,0.15
339 Dorothea,e,9.92967,173.76914,161.06163,3.0146536,0,0.0947894,182.86206,1/4/2010,2000.0,9.24,0.15
340 Eduarda,e,4.67886,27.0973,42.0649,2.7452008,0,0.1172537,223.81501,1/4/2010,2000.0,9.9,0.15
341 California,e,5.6681,29.16675,293.4695,2.1995886,0,0.1944536,10.83839,1/4/2010,2000.0,10.55,0.15
342 Endymion,e,7.34638,232.73165,225.08753,2.5679859,0,0.1290768,120.91907,1/4/2010,2000.0,10.22,0.15
343 Ostara,e,3.26654,38.65832,9.73465,2.4126677,0,0.2287699,104.96759,1/4/2010,2000.0,11.56,0.15
344 Desiderata,e,18.35585,48.21697,237.38954,2.5936145,0,0.3163056,95.35559,1/4/2010,2000.0,8.08,0.15
345 Tercidina,e,9.74941,212.69679,230.75805,2.3249794,0,0.0604436,341.07196,1/4/2010,2000.0,8.71,0.1
346 Hermentaria,e,8.75879,92.13503,290.26419,2.7957732,0,0.0996318,44.80037,1/4/2010,2000.0,7.13,0.15
347 Pariana,e,11.67318,85.7151,85.70907,2.6154895,0,0.1642874,168.03503,1/4/2010,2000.0,8.96,0.15
348 May,e,9.74456,90.0815,11.63339,2.9697841,0,0.0668059,281.41764,1/4/2010,2000.0,9.4,0.15
349 Dembowska,e,8.25727,32.47501,347.52289,2.9244978,0,0.0887983,192.41923,1/4/2010,2000.0,5.93,0.37
350 Ornamenta,e,24.8965,90.18032,338.79325,3.1126714,0,0.1568488,105.44137,1/4/2010,2000.0,8.37,0.15
351 Yrsa,e,9.19412,99.43573,31.40994,2.7634724,0,0.1560156,125.9471,1/4/2010,2000.0,8.98,0.15
352 Gisela,e,3.37991,247.39168,144.25008,2.1942557,0,0.1491209,66.71713,1/4/2010,2000.0,10.01,0.15
353 Ruperto-Carola,e,5.70655,102.58003,321.30912,2.7370284,0,0.3254793,343.45475,1/4/2010,2000.0,11,0.15
354 Eleonora,e,18.39384,140.40719,6.58404,2.7989153,0,0.1144596,337.35227,1/4/2010,2000.0,6.44,0.37
355 Gabriella,e,4.28252,351.88998,106.04679,2.5375119,0,0.1056003,345.26652,1/4/2010,2000.0,10.1,0.15
356 Liguria,e,8.23152,354.84789,78.59787,2.7558262,0,0.2392444,232.58852,1/4/2010,2000.0,8.22,0.15
357 Ninina,e,15.08463,137.8806,251.08467,3.1518669,0,0.0735041,84.88427,1/4/2010,2000.0,8.72,0.15
358 Apollonia,e,3.54776,172.23219,253.48389,2.8786447,0,0.1501936,54.61662,1/4/2010,2000.0,9.1,0.15
359 Georgia,e,6.76623,6.30262,337.81377,2.7305905,0,0.153855,160.06953,1/4/2010,2000.0,8.86,0.15
360 Carlova,e,11.71308,132.65997,288.10183,2.9999235,0,0.1809356,255.50226,1/4/2010,2000.0,8.48,0.15
361 Bononia,e,12.62746,18.95165,67.95326,3.9614971,0,0.2133151,29.85266,1/4/2010,2000.0,8.22,0.15
362 Havnia,e,8.07252,27.38399,31.6971,2.5779133,0,0.0446703,189.41652,1/4/2010,2000.0,9,0.15
363 Padua,e,5.9447,64.9084,293.27999,2.7463896,0,0.0714253,36.67338,1/4/2010,2000.0,9.01,0.15
364 Isara,e,6.00581,105.61053,312.89772,2.2199591,0,0.1497883,208.14951,1/4/2010,2000.0,9.86,0.15
365 Corduba,e,12.77679,185.3046,216.45452,2.8042393,0,0.1548824,89.68015,1/4/2010,2000.0,9.18,0.15
366 Vincentina,e,10.55382,346.97344,325.36151,3.1460886,0,0.0552545,226.53435,1/4/2010,2000.0,8.5,0.15
367 Amicitia,e,2.942,83.51965,55.16472,2.2205269,0,0.0951051,188.78881,1/4/2010,2000.0,10.7,0.15
368 Haidea,e,7.78874,227.39695,91.5353,3.0735109,0,0.2011887,194.44769,1/4/2010,2000.0,9.93,0.15
369 Aeria,e,12.70811,94.37432,269.43428,2.6482073,0,0.0985698,284.68012,1/4/2010,2000.0,8.52,0.15
370 Modestia,e,7.87178,291.07589,68.65504,2.3238027,0,0.0913842,261.77753,1/4/2010,2000.0,10.68,0.15
371 Bohemia,e,7.38387,283.70561,341.66817,2.7263271,0,0.060757,339.62603,1/4/2010,2000.0,8.72,0.15
372 Palma,e,23.86426,327.45741,115.83507,3.1443634,0,0.2617975,212.12831,1/4/2010,2000.0,7.2,0.15
373 Melusina,e,15.43739,3.86202,347.48688,3.1141534,0,0.1440785,57.8847,1/4/2010,2000.0,9.13,0.15
374 Burgundia,e,8.98564,219.10302,26.86731,2.7784652,0,0.0812558,143.07132,1/4/2010,2000.0,8.67,0.15
375 Ursula,e,15.9497,336.59768,343.18546,3.1234955,0,0.1073689,48.1425,1/4/2010,2000.0,7.47,0.27
376 Geometria,e,5.43086,302.23187,316.31173,2.2891801,0,0.1707587,300.30747,1/4/2010,2000.0,9.49,0.15
377 Campania,e,6.6787,210.2426,196.75155,2.6910749,0,0.0763038,96.41622,1/4/2010,2000.0,8.89,0.15
378 Holmia,e,7.00038,232.68251,156.87738,2.7772025,0,0.1272818,61.76584,1/4/2010,2000.0,9.8,0.15
379 Huenna,e,1.66909,172.07189,179.69787,3.1333826,0,0.1877823,60.43439,1/4/2010,2000.0,8.87,0.15
380 Fiducia,e,6.15601,95.20419,240.80292,2.6776871,0,0.1140751,290.75209,1/4/2010,2000.0,9.42,0.15
381 Myrrha,e,12.52548,125.32545,138.07824,3.2201065,0,0.0951181,306.9741,1/4/2010,2000.0,8.25,0.15
382 Dodona,e,7.40021,313.58333,270.83988,3.1187471,0,0.1759853,296.01738,1/4/2010,2000.0,8.77,0.15
384 Burdigala,e,5.59054,47.91673,35.05191,2.6512401,0,0.1471415,345.34502,1/4/2010,2000.0,9.64,0.15
385 Ilmatar,e,13.56272,345.22288,187.88185,2.8480895,0,0.1257496,34.81304,1/4/2010,2000.0,7.49,0.15
386 Siegena,e,20.26236,166.91967,219.6086,2.8964211,0,0.1730743,306.66402,1/4/2010,2000.0,7.43,0.16
387 Aquitania,e,18.13841,128.309,157.54457,2.7377144,0,0.2376194,81.73545,1/4/2010,2000.0,7.41,0.15
388 Charybdis,e,6.45943,354.60231,333.75198,3.0047937,0,0.0596708,276.13287,1/4/2010,2000.0,8.57,0.07
389 Industria,e,8.12404,282.50926,265.10523,2.610878,0,0.0651552,147.045,1/4/2010,2000.0,7.88,0.15
390 Alma,e,12.1641,305.25273,190.79316,2.6508562,0,0.131708,308.33244,1/4/2010,2000.0,10.39,0.15
391 Ingeborg,e,23.16563,212.96238,146.71242,2.3203783,0,0.305847,231.829,1/4/2010,2000.0,10.1,0.15
392 Wilhelmina,e,14.3297,209.88087,174.97325,2.8835529,0,0.1401748,197.88521,1/4/2010,2000.0,9.7,0.15
393 Lampetia,e,14.87523,212.46664,91.15361,2.7783545,0,0.332329,21.76188,1/4/2010,2000.0,8.39,0.15
394 Arduina,e,6.22024,67.34637,269.40547,2.7611243,0,0.2283895,77.6802,1/4/2010,2000.0,9.66,0.15
396 Aeolia,e,2.54531,250.08455,19.77939,2.742558,0,0.1574844,283.2899,1/4/2010,2000.0,9.9,0.15
397 Vienna,e,12.83137,228.20728,139.14141,2.6351597,0,0.2462678,10.54074,1/4/2010,2000.0,9.31,0.15
398 Admete,e,9.5241,280.03782,159.24496,2.7373902,0,0.224308,151.84663,1/4/2010,2000.0,10.3,0.15
399 Persephone,e,13.11623,346.43408,192.59633,3.0578257,0,0.0699482,173.01722,1/4/2010,2000.0,9,0.15
402 Chloe,e,11.8229,129.52571,17.72978,2.5584801,0,0.1127911,45.30762,1/4/2010,2000.0,9.02,0.15
403 Cyane,e,9.13483,244.56635,253.73087,2.8144722,0,0.0952012,209.98414,1/4/2010,2000.0,9.1,0.15
404 Arsinoe,e,14.11282,92.65006,120.89878,2.592681,0,0.1994687,194.64239,1/4/2010,2000.0,9.01,0.15
405 Thia,e,11.94957,255.29832,309.01479,2.5838748,0,0.2445341,278.1263,1/4/2010,2000.0,8.46,0.15
406 Erna,e,4.19819,315.85126,37.68638,2.9151774,0,0.1839301,333.68977,1/4/2010,2000.0,10.36,0.15
407 Arachne,e,7.53073,294.82209,80.75767,2.626287,0,0.070966,320.08378,1/4/2010,2000.0,8.88,0.15
408 Fama,e,9.10413,297.50454,107.40035,3.1708392,0,0.1387665,90.8956,1/4/2010,2000.0,9.5,0.15
409 Aspasia,e,11.24266,242.34642,353.1459,2.5762517,0,0.070357,48.73704,1/4/2010,2000.0,7.62,0.29
410 Chloris,e,10.9213,97.19373,172.21414,2.7286458,0,0.2362264,321.14587,1/4/2010,2000.0,8.3,0.15
411 Xanthe,e,15.34479,107.51477,182.93815,2.9347517,0,0.1173084,57.80418,1/4/2010,2000.0,8.9,0.15
412 Elisabetha,e,13.7776,106.54274,94.83497,2.761521,0,0.0431057,202.76361,1/4/2010,2000.0,9,0.15
413 Edburga,e,18.71545,103.90022,252.77211,2.583576,0,0.3438396,233.42823,1/4/2010,2000.0,10.18,0.15
415 Palatia,e,8.17404,127.03508,297.2158,2.7898247,0,0.3017263,207.56969,1/4/2010,2000.0,9.21,0.15
